[
    {
        "Altitude(m)": 567385.052456997,
        "Argument of Periapsis(deg)": 0.0,
        "Eccentricity": 0.0,
        "Inclination(deg)": 97.0,
        "Latitude(deg)": 30.834372006589014,
        "Longitude(deg)": -44.14952965948434,
        "Mean Anomaly(deg)": 31.034499999999994,
        "RAAN(deg)": 60.0,
        "Satellite Name": "Starlink Shell 3 1705",
        "Satellite Number": 1705,
        "Semi-Major Axis(m)": 6938478.169268562,
        "Time(s)": 0
    },
    {
        "Altitude(m)": 567490.0512193936,
        "Argument of Periapsis(deg)": -0.0003965466804030246,
        "Eccentricity": 0.0,
        "Inclination(deg)": 97.0,
        "Latitude(deg)": 31.45563377927262,
        "Longitude(deg)": -44.29506212254229,
        "Mean Anomaly(deg)": 31.659976197705056,
        "RAAN(deg)": 60.000104334274006,
        "Satellite Name": "Starlink Shell 3 1705",
        "Satellite Number": 1705,
        "Semi-Major Axis(m)": 6938478.169268562,
        "Time(s)": 10
    },
    {
        "Altitude(m)": 567597.4386030497,
        "Argument of Periapsis(deg)": -0.0007930933608060492,
        "Eccentricity": 0.0,
        "Inclination(deg)": 97.0,
        "Latitude(deg)": 32.07674643531571,
        "Longitude(deg)": -44.44197058760892,
        "Mean Anomaly(deg)": 32.28545239541009,
        "RAAN(deg)": 60.00020866854802,
        "Satellite Name": "Starlink Shell 3 1705",
        "Satellite Number": 1705,
        "Semi-Major Axis(m)": 6938478.169268562,
        "Time(s)": 20
    },
    {
        "Altitude(m)": 567707.1382172734,
        "Argument of Periapsis(deg)": -0.001189640041209074,
        "Eccentricity": 0.0,
        "Inclination(deg)": 97.0,
        "Latitude(deg)": 32.69770584966463,
        "Longitude(deg)": -44.59030762853621,
        "Mean Anomaly(deg)": 32.91092859311512,
        "RAAN(deg)": 60.00031300282202,
        "Satellite Name": "Starlink Shell 3 1705",
        "Satellite Number": 1705,
        "Semi-Major Axis(m)": 6938478.169268562,
        "Time(s)": 30
    },
    {
        "Altitude(m)": 567819.0727499044,
        "Argument of Periapsis(deg)": -0.0015861867216120985,
        "Eccentricity": 0.0,
        "Inclination(deg)": 97.0,
        "Latitude(deg)": 33.31850780479432,
        "Longitude(deg)": -44.74012739925994,
        "Mean Anomaly(deg)": 33.53640479082018,
        "RAAN(deg)": 60.000417337096025,
        "Satellite Name": "Starlink Shell 3 1705",
        "Satellite Number": 1705,
        "Semi-Major Axis(m)": 6938478.169268562,
        "Time(s)": 40
    },
    {
        "Altitude(m)": 567933.1640082492,
        "Argument of Periapsis(deg)": -0.0019827334020151234,
        "Eccentricity": 0.0,
        "Inclination(deg)": 97.0,
        "Latitude(deg)": 33.939147983754154,
        "Longitude(deg)": -44.89148675967163,
        "Mean Anomaly(deg)": 34.16188098852522,
        "RAAN(deg)": 60.00052167137004,
        "Satellite Name": "Starlink Shell 3 1705",
        "Satellite Number": 1705,
        "Semi-Major Axis(m)": 6938478.169268562,
        "Time(s)": 50
    },
    {
        "Altitude(m)": 568049.3329604057,
        "Argument of Periapsis(deg)": -0.002379280082418148,
        "Eccentricity": 0.0,
        "Inclination(deg)": 97.0,
        "Latitude(deg)": 34.5596219627198,
        "Longitude(deg)": -45.04444489616879,
        "Mean Anomaly(deg)": 34.787357186230274,
        "RAAN(deg)": 60.00062600564405,
        "Satellite Name": "Starlink Shell 3 1705",
        "Satellite Number": 1705,
        "Semi-Major Axis(m)": 6938478.169268562,
        "Time(s)": 60
    },
    {
        "Altitude(m)": 568167.4997768869,
        "Argument of Periapsis(deg)": -0.002775826762821173,
        "Eccentricity": 0.0,
        "Inclination(deg)": 97.0,
        "Latitude(deg)": 35.179925203012786,
        "Longitude(deg)": -45.199062950338124,
        "Mean Anomaly(deg)": 35.41283338393531,
        "RAAN(deg)": 60.00073033991806,
        "Satellite Name": "Starlink Shell 3 1705",
        "Satellite Number": 1705,
        "Semi-Major Axis(m)": 6938478.169268562,
        "Time(s)": 70
    },
    {
        "Altitude(m)": 568287.5838726168,
        "Argument of Periapsis(deg)": -0.003172373443224197,
        "Eccentricity": 0.0,
        "Inclination(deg)": 97.0,
        "Latitude(deg)": 35.80005304254517,
        "Longitude(deg)": -45.35540516927976,
        "Mean Anomaly(deg)": 36.038309581640355,
        "RAAN(deg)": 60.00083467419207,
        "Satellite Name": "Starlink Shell 3 1705",
        "Satellite Number": 1705,
        "Semi-Major Axis(m)": 6938478.169268562,
        "Time(s)": 80
    },
    {
        "Altitude(m)": 568409.5039491903,
        "Argument of Periapsis(deg)": -0.0035689201236272223,
        "Eccentricity": 0.0,
        "Inclination(deg)": 97.0,
        "Latitude(deg)": 36.42000068664855,
        "Longitude(deg)": -45.51353855251971,
        "Mean Anomaly(deg)": 36.6637857793454,
        "RAAN(deg)": 60.00093900846607,
        "Satellite Name": "Starlink Shell 3 1705",
        "Satellite Number": 1705,
        "Semi-Major Axis(m)": 6938478.169268562,
        "Time(s)": 90
    },
    {
        "Altitude(m)": 568533.1780374137,
        "Argument of Periapsis(deg)": -0.003965466804030247,
        "Eccentricity": 0.0,
        "Inclination(deg)": 97.0,
        "Latitude(deg)": 37.03976319823762,
        "Longitude(deg)": -45.673532509135505,
        "Mean Anomaly(deg)": 37.28926197705046,
        "RAAN(deg)": 60.00104334274008,
        "Satellite Name": "Starlink Shell 3 1705",
        "Satellite Number": 1705,
        "Semi-Major Axis(m)": 6938478.169268562,
        "Time(s)": 100
    },
    {
        "Altitude(m)": 568658.5235401227,
        "Argument of Periapsis(deg)": -0.004362013484433271,
        "Eccentricity": 0.0,
        "Inclination(deg)": 97.0,
        "Latitude(deg)": 37.659335487253514,
        "Longitude(deg)": -45.83546003878999,
        "Mean Anomaly(deg)": 37.91473817475548,
        "RAAN(deg)": 60.00114767701409,
        "Satellite Name": "Starlink Shell 3 1705",
        "Satellite Number": 1705,
        "Semi-Major Axis(m)": 6938478.169268562,
        "Time(s)": 110
    },
    {
        "Altitude(m)": 568785.4572752055,
        "Argument of Periapsis(deg)": -0.004758560164836296,
        "Eccentricity": 0.0,
        "Inclination(deg)": 97.0,
        "Latitude(deg)": 38.27871229933331,
        "Longitude(deg)": -45.99939741182555,
        "Mean Anomaly(deg)": 38.54021437246054,
        "RAAN(deg)": 60.0012520112881,
        "Satellite Name": "Starlink Shell 3 1705",
        "Satellite Number": 1705,
        "Semi-Major Axis(m)": 6938478.169268562,
        "Time(s)": 120
    },
    {
        "Altitude(m)": 568913.8955188426,
        "Argument of Periapsis(deg)": -0.005155106845239321,
        "Eccentricity": 0.0,
        "Inclination(deg)": 97.0,
        "Latitude(deg)": 38.89788820364074,
        "Longitude(deg)": -46.16542386227203,
        "Mean Anomaly(deg)": 39.165690570165566,
        "RAAN(deg)": 60.00135634556211,
        "Satellite Name": "Starlink Shell 3 1705",
        "Satellite Number": 1705,
        "Semi-Major Axis(m)": 6938478.169268562,
        "Time(s)": 130
    },
    {
        "Altitude(m)": 569043.7540489536,
        "Argument of Periapsis(deg)": -0.005551653525642346,
        "Eccentricity": 0.0,
        "Inclination(deg)": 97.0,
        "Latitude(deg)": 39.51685757978737,
        "Longitude(deg)": -46.333622807712096,
        "Mean Anomaly(deg)": 39.79116676787063,
        "RAAN(deg)": 60.00146067983612,
        "Satellite Name": "Starlink Shell 3 1705",
        "Satellite Number": 1705,
        "Semi-Major Axis(m)": 6938478.169268562,
        "Time(s)": 140
    },
    {
        "Altitude(m)": 569174.9481887856,
        "Argument of Periapsis(deg)": -0.005948200206045371,
        "Eccentricity": 0.0,
        "Inclination(deg)": 97.0,
        "Latitude(deg)": 40.13561460377238,
        "Longitude(deg)": -46.50408157143508,
        "Mean Anomaly(deg)": 40.41664296557566,
        "RAAN(deg)": 60.00156501411012,
        "Satellite Name": "Starlink Shell 3 1705",
        "Satellite Number": 1705,
        "Semi-Major Axis(m)": 6938478.169268562,
        "Time(s)": 150
    },
    {
        "Altitude(m)": 569307.3928506388,
        "Argument of Periapsis(deg)": -0.006344746886448394,
        "Eccentricity": 0.0,
        "Inclination(deg)": 97.0,
        "Latitude(deg)": 40.754153232856105,
        "Longitude(deg)": -46.67689112103775,
        "Mean Anomaly(deg)": 41.042119163280695,
        "RAAN(deg)": 60.001669348384134,
        "Satellite Name": "Starlink Shell 3 1705",
        "Satellite Number": 1705,
        "Semi-Major Axis(m)": 6938478.169268562,
        "Time(s)": 160
    },
    {
        "Altitude(m)": 569441.0025797425,
        "Argument of Periapsis(deg)": -0.00674129356685142,
        "Eccentricity": 0.0,
        "Inclination(deg)": 97.0,
        "Latitude(deg)": 41.372467189274595,
        "Longitude(deg)": -46.85214733775522,
        "Mean Anomaly(deg)": 41.66759536098575,
        "RAAN(deg)": 60.00177368265814,
        "Satellite Name": "Starlink Shell 3 1705",
        "Satellite Number": 1705,
        "Semi-Major Axis(m)": 6938478.169268562,
        "Time(s)": 170
    },
    {
        "Altitude(m)": 569575.6915981944,
        "Argument of Periapsis(deg)": -0.007137840247254445,
        "Eccentricity": 0.0,
        "Inclination(deg)": 97.0,
        "Latitude(deg)": 41.99054994269832,
        "Longitude(deg)": -47.02995079232945,
        "Mean Anomaly(deg)": 42.293071558690784,
        "RAAN(deg)": 60.00187801693215,
        "Satellite Name": "Starlink Shell 3 1705",
        "Satellite Number": 1705,
        "Semi-Major Axis(m)": 6938478.169268562,
        "Time(s)": 180
    }
]